{
    "links": {
        "self": "http://www.neowsapp.com/rest/v1/neo/3694779?api_key=iIulBulltgU6a56xZRHN4H3l9WmuAYTsLGpBGhQ2"
    },
    "id": "3694779",
    "neo_reference_id": "3694779",
    "name": "(2014 UG115)",
    "designation": "2014 UG115",
    "nasa_jpl_url": "http://ssd.jpl.nasa.gov/sbdb.cgi?sstr=3694779",
    "absolute_magnitude_h": 26.6,
    "estimated_diameter": {
        "kilometers": {
            "estimated_diameter_min": 0.0127219879,
            "estimated_diameter_max": 0.0284472297
        },
        "meters": {
            "estimated_diameter_min": 12.7219878539,
            "estimated_diameter_max": 28.4472296503
        },
        "miles": {
            "estimated_diameter_min": 0.0079050743,
            "estimated_diameter_max": 0.0176762835
        },
        "feet": {
            "estimated_diameter_min": 41.7388066307,
            "estimated_diameter_max": 93.330808926
        }
    },
    "is_potentially_hazardous_asteroid": false,
    "close_approach_data": [
        {
            "close_approach_date": "2004-07-29",
            "close_approach_date_full": "2004-Jul-29 01:04",
            "epoch_date_close_approach": 1091063040000,
            "relative_velocity": {
                "kilometers_per_second": "13.801005547",
                "kilometers_per_hour": "49683.619969317",
                "miles_per_hour": "30871.469308157"
            },
            "miss_distance": {
                "astronomical": "0.3430434246",
                "lunar": "133.4438921694",
                "kilometers": "51318565.637665602",
                "miles": "31887878.0266932276"
            },
            "orbiting_body": "Earth"
        },
        {
            "close_approach_date": "2014-10-14",
            "close_approach_date_full": "2014-Oct-14 07:31",
            "epoch_date_close_approach": 1413271860000,
            "relative_velocity": {
                "kilometers_per_second": "5.7934561332",
                "kilometers_per_hour": "20856.4420794866",
                "miles_per_hour": "12959.3820243343"
            },
            "miss_distance": {
                "astronomical": "0.0373336971",
                "lunar": "14.5228081719",
                "kilometers": "5585041.565385177",
                "miles": "3470383.9048903626"
            },
            "orbiting_body": "Earth"
        },
        {
            "close_approach_date": "2019-11-05",
            "close_approach_date_full": "2019-Nov-05 12:40",
            "epoch_date_close_approach": 1572957600000,
            "relative_velocity": {
                "kilometers_per_second": "12.9054132729",
                "kilometers_per_hour": "46459.4877823255",
                "miles_per_hour": "28868.1189500789"
            },
            "miss_distance": {
                "astronomical": "0.2778854244",
                "lunar": "108.0974300916",
                "kilometers": "41571067.594286028",
                "miles": "25831063.6007540664"
            },
            "orbiting_body": "Earth"
        }
    ],
    "orbital_data": {
        "orbit_id": "4",
        "orbit_determination_date": "2017-04-06 08:37:48",
        "first_observation_date": "2014-10-25",
        "last_observation_date": "2014-10-30",
        "data_arc_in_days": 5,
        "observations_used": 15,
        "orbit_uncertainty": "7",
        "minimum_orbit_intersection": ".0353919",
        "jupiter_tisserand_invariant": "4.674",
        "epoch_osculation": "2459000.5",
        "eccentricity": ".282944235555248",
        "semi_major_axis": "1.413780414479451",
        "inclination": "6.297835508950259",
        "ascending_node_longitude": "29.63800010533253",
        "orbital_period": "614.0042373657792",
        "perihelion_distance": "1.013759395861581",
        "perihelion_argument": "330.1924644860295",
        "aphelion_distance": "1.813801433097321",
        "perihelion_time": "2458767.762409182552",
        "mean_anomaly": "136.4575805758944",
        "mean_motion": ".5863151719351052",
        "equinox": "J2000",
        "orbit_class": {
            "orbit_class_type": "APO",
            "orbit_class_description": "Near-Earth asteroid orbits which cross the Earth’s orbit similar to that of 1862 Apollo",
            "orbit_class_range": "a (semi-major axis) > 1.0 AU; q (perihelion) < 1.017 AU"
        }
    },
    "is_sentry_object": false
}